{
  "norad_id": 45190,
  "name": "STARLINK-1234",
  "history": [
    {
      "epoch": "2026-03-28T19:37:55.179264Z",
      "apogee_km": 375.56865208527597,
      "perigee_km": 366.9662661259672,
      "latitude_deg": -1.3135834703294523e-05,
      "longitude_deg": 110.793383322446,
      "height_km": 367.8962932804601,
      "semi_major_axis_km": 6749.404459105622,
      "eccentricity": 0.00063727,
      "inclination_deg": 53.0394,
      "raan_deg": 231.5063,
      "arg_perigee_deg": 353.3697,
      "mean_anomaly_deg": 6.7232,
      "mean_motion_rev_day": 15.65685685
    },
    {
      "epoch": "2026-03-30T12:59:30.645024Z",
      "apogee_km": 375.16772845120886,
      "perigee_km": 365.8149394157781,
      "latitude_deg": -3.269572101786358e-05,
      "longitude_deg": -159.77159299600373,
      "height_km": 366.71806125508,
      "semi_major_axis_km": 6748.628333933493,
      "eccentricity": 0.00069294,
      "inclination_deg": 53.0428,
      "raan_deg": 223.0377,
      "arg_perigee_deg": 358.3325,
      "mean_anomaly_deg": 1.7665,
      "mean_motion_rev_day": 15.65955785
    },
    {
      "epoch": "2026-03-30T19:07:07.092768Z",
      "apogee_km": 375.03971481079043,
      "perigee_km": 365.71151576318334,
      "latitude_deg": 4.123293953391914e-05,
      "longitude_deg": 106.81987864291678,
      "height_km": 366.612959248289,
      "semi_major_axis_km": 6748.512615286986,
      "eccentricity": 0.00069113,
      "inclination_deg": 53.0425,
      "raan_deg": 221.7826,
      "arg_perigee_deg": 359.2017,
      "mean_anomaly_deg": 0.8986,
      "mean_motion_rev_day": 15.65996063
    },
    {
      "epoch": "2026-03-31T15:01:46.887168Z",
      "apogee_km": 374.77506956874913,
      "perigee_km": 365.3006320781924,
      "latitude_deg": -8.236463609010415e-06,
      "longitude_deg": 163.25731481417446,
      "height_km": 366.2026490445275,
      "semi_major_axis_km": 6748.1748508234705,
      "eccentricity": 0.000702,
      "inclination_deg": 53.0427,
      "raan_deg": 217.7036,
      "arg_perigee_deg": 1.3221,
      "mean_anomaly_deg": 358.7811,
      "mean_motion_rev_day": 15.66113638
    },
    {
      "epoch": "2026-04-01T07:52:34.961952Z",
      "apogee_km": 374.68571748277736,
      "perigee_km": 364.8715489858014,
      "latitude_deg": 2.300909608559984e-05,
      "longitude_deg": -93.58554134782504,
      "height_km": 365.7788939313673,
      "semi_major_axis_km": 6747.915633234289,
      "eccentricity": 0.0007272,
      "inclination_deg": 53.042,
      "raan_deg": 214.2529,
      "arg_perigee_deg": 3.0404,
      "mean_anomaly_deg": 357.0654,
      "mean_motion_rev_day": 15.66203881
    },
    {
      "epoch": "2026-04-02T14:30:14.308992Z",
      "apogee_km": 374.2164153571175,
      "perigee_km": 364.2032177344281,
      "latitude_deg": -6.0070954625931614e-05,
      "longitude_deg": 159.46642105471508,
      "height_km": 365.1437567518753,
      "semi_major_axis_km": 6747.3468165457725,
      "eccentricity": 0.00074201,
      "inclination_deg": 53.0423,
      "raan_deg": 207.9767,
      "arg_perigee_deg": 7.3104,
      "mean_anomaly_deg": 352.8017,
      "mean_motion_rev_day": 15.66401937
    },
    {
      "epoch": "2026-04-03T16:32:01.895712Z",
      "apogee_km": 373.7230102185058,
      "perigee_km": 363.4989883004282,
      "latitude_deg": -1.4157914781866944e-05,
      "longitude_deg": 122.61416823081962,
      "height_km": 364.4832538504186,
      "semi_major_axis_km": 6746.747999259466,
      "eccentricity": 0.0007577,
      "inclination_deg": 53.0427,
      "raan_deg": 202.6417,
      "arg_perigee_deg": 10.456,
      "mean_anomaly_deg": 349.6611,
      "mean_motion_rev_day": 15.66610484
    },
    {
      "epoch": "2026-04-04T13:58:03.865152Z",
      "apogee_km": 373.40611939887276,
      "perigee_km": 362.88596562238126,
      "latitude_deg": 3.339978404701235e-05,
      "longitude_deg": 155.83043904629704,
      "height_km": 363.9090586626737,
      "semi_major_axis_km": 6746.283042510627,
      "eccentricity": 0.0007797,
      "inclination_deg": 53.0422,
      "raan_deg": 198.2464,
      "arg_perigee_deg": 12.4728,
      "mean_anomaly_deg": 347.6479,
      "mean_motion_rev_day": 15.66772444
    },
    {
      "epoch": "2026-04-05T12:55:49.911168Z",
      "apogee_km": 373.0695851955952,
      "perigee_km": 362.4624621991943,
      "latitude_deg": 6.189423397789195e-06,
      "longitude_deg": 165.7367106273026,
      "height_km": 363.5433834945539,
      "semi_major_axis_km": 6745.903023697395,
      "eccentricity": 0.00078619,
      "inclination_deg": 53.0421,
      "raan_deg": 193.5376,
      "arg_perigee_deg": 15.0723,
      "mean_anomaly_deg": 345.0525,
      "mean_motion_rev_day": 15.66904838
    },
    {
      "epoch": "2026-04-07T12:22:52.300704Z",
      "apogee_km": 372.619409174893,
      "perigee_km": 361.5173407441398,
      "latitude_deg": 5.4788634504787705e-05,
      "longitude_deg": 162.2948562537299,
      "height_km": 362.75822798694725,
      "semi_major_axis_km": 6745.205374959516,
      "eccentricity": 0.00082296,
      "inclination_deg": 53.0414,
      "raan_deg": 183.8044,
      "arg_perigee_deg": 20.2659,
      "mean_anomaly_deg": 339.8682,
      "mean_motion_rev_day": 15.67147939
    }
  ]
}